[{"OBJECT_NAME":"RSW-01","OBJECT_ID":"2021-076A","EPOCH":"2026-03-09T22:50:26.263104","MEAN_MOTION":13.42854538,"ECCENTRICITY":0.00146776,"INCLINATION":86.4145,"RA_OF_ASC_NODE":193.2211,"ARG_OF_PERICENTER":348.7522,"MEAN_ANOMALY":11.3292,"EPHEMERIS_TYPE":0,"CLASSIFICATION_TYPE":"U","NORAD_CAT_ID":49112,"ELEMENT_SET_NO":999,"REV_AT_EPOCH":22256,"BSTAR":-5.297471e-5,"MEAN_MOTION_DOT":-1.5e-7,"MEAN_MOTION_DDOT":0},{"OBJECT_NAME":"THOR ABLESTAR DEB","OBJECT_ID":"1965-065L","EPOCH":"2026-03-09T22:36:53.156160","MEAN_MOTION":13.33849103,"ECCENTRICITY":0.00716156,"INCLINATION":90.0716,"RA_OF_ASC_NODE":125.8323,"ARG_OF_PERICENTER":164.7383,"MEAN_ANOMALY":318.1897,"EPHEMERIS_TYPE":0,"CLASSIFICATION_TYPE":"U","NORAD_CAT_ID":1522,"ELEMENT_SET_NO":999,"REV_AT_EPOCH":94656,"BSTAR":7.5346369e-5,"MEAN_MOTION_DOT":4.7e-7,"MEAN_MOTION_DDOT":0}]
